*******************************************************************************
 Revised: Sep 10, 2019             Puck / (Uranus)                          715

 SATELLITE PHYSICAL PROPERTIES:
  Radius (km)           = 77 +- 3           Density (g cm^-3)   =
  Mass (10^20 kg )      =                   Geometric Albedo    =   0.07 
                                            V(1,0)              =  +7.5

 SATELLITE ORBITAL DATA:
  Semi-major axis, a (km) =  86.004 (10^3)  Orbital period      =  0.761832 d
  Eccentricity, e         =   0.000         Rotational period   = 
  Inclination, i  (deg)   =   0.3
*******************************************************************************
 
 
*******************************************************************************
Ephemeris / WWW_USER Fri Jun 19 18:50:33 2020 Pasadena, USA      / Horizons
*******************************************************************************
Target body name: Puck (715)                      {source: ura115}
Center body name: Solar System Barycenter (0)     {source: DE431mx}
Center-site name: BODY CENTER
*******************************************************************************
Start time      : A.D. 1982-Jan-31 00:00:00.0000 TDB
Stop  time      : A.D. 2052-Mar-04 00:00:00.0000 TDB
Step-size       : 7200 minutes
*******************************************************************************
Center geodetic : 0.00000000,0.00000000,0.0000000 {E-lon(deg),Lat(deg),Alt(km)}
Center cylindric: 0.00000000,0.00000000,0.0000000 {E-lon(deg),Dxy(km),Dz(km)}
Center radii    : (undefined)                                                  
Output units    : AU-D
Output type     : GEOMETRIC cartesian states
Output format   : 2 (position and velocity)
Reference frame : Ecliptic of J2000.0
*******************************************************************************
            JDTDB,            Calendar Date (TDB),        delta-T,                      X,                      Y,                      Z,                     VX,                     VY,                     VZ,
******************************************************************************************************************************************************************************************************************
$$SOE
2450400.500000000, A.D. 1996-Nov-13 00:00:00.0000,      62.182677,  1.102452341811783E+01, -1.642461981174875E+01, -2.036058107725503E-01,  5.154724596821031E-03,  1.020840764807113E-03, -4.257825066838319E-03,
2450405.500000000, A.D. 1996-Nov-18 00:00:00.0000,      62.182773,  1.103962653610849E+01, -1.641437588384676E+01, -2.040611359442004E-01,  3.097794229981330E-03,  2.685895012222181E-03,  4.656640963944080E-03,
2450410.500000000, A.D. 1996-Nov-23 00:00:00.0000,      62.182877,  1.105688097610201E+01, -1.640455943074654E+01, -2.043895550349551E-01,  1.566405282485699E-03,  1.760840284854909E-03, -4.467442054583120E-03,
2450415.500000000, A.D. 1996-Nov-28 00:00:00.0000,      62.182989,  1.107210652859658E+01, -1.639419728429257E+01, -2.039900291670718E-01,  6.438429759652893E-03,  1.814893378826211E-03,  3.450659290632922E-03,
2450420.500000000, A.D. 1996-Dec-03 00:00:00.0000,      62.183110,  1.108888282804351E+01, -1.638435421963000E+01, -2.050596956370016E-01, -1.026954558951200E-03,  2.653011173543214E-03, -2.030412807646721E-03,
2450425.500000000, A.D. 1996-Dec-08 00:00:00.0000,      62.183239,  1.110478629706691E+01, -1.637403873477720E+01, -2.041460033897103E-01,  7.865363104428888E-03,  1.064460045082719E-03,  1.650693007874973E-04,
2450430.500000000, A.D. 1996-Dec-13 00:00:00.0000,      62.183374,  1.112070872974517E+01, -1.636401559003736E+01, -2.054209808911343E-01, -1.079589946587254E-03,  3.169330893346734E-03,  1.596895756946858E-03,
2450435.500000000, A.D. 1996-Dec-18 00:00:00.0000,      62.183514,  1.113742827079304E+01, -1.635386538790318E+01, -2.046411755367138E-01,  6.522981596872925E-03,  8.856285115001831E-04, -3.240453169321222E-03,
2450440.500000000, A.D. 1996-Dec-23 00:00:00.0000,      62.183655,  1.115261748272257E+01, -1.634359704045843E+01, -2.054625287309542E-01,  1.435726864828717E-03,  3.005971631050583E-03,  4.249711732996993E-03,
2450445.500000000, A.D. 1996-Dec-28 00:00:00.0000,      62.183799,  1.116979185842368E+01, -1.633361376344054E+01, -2.053842949862718E-01,  3.208911875558814E-03,  1.389524139863750E-03, -4.732279987738176E-03,
2450450.500000000, A.D. 1997-Jan-02 00:00:00.0000,      62.183945,  1.118479312875701E+01, -1.632316246642511E+01, -2.053638013382357E-01,  5.015095033687239E-03,  2.263659578643421E-03,  4.346550000908765E-03,
2450455.500000000, A.D. 1997-Jan-07 00:00:00.0000,      62.184093,  1.120177709434289E+01, -1.631322963661367E+01, -2.061353316130969E-01, -1.000010782637690E-04,  2.280067624235863E-03, -3.419101420445906E-03,
2450460.500000000, A.D. 1997-Jan-12 00:00:00.0000,      62.184240,  1.121723557320369E+01, -1.630274826759390E+01, -2.053874558301835E-01,  7.520751173282639E-03,  1.387664154572652E-03,  1.829688368758851E-03,
2450465.500000000, A.D. 1997-Jan-17 00:00:00.0000,      62.184385,  1.123348412786258E+01, -1.629270051584891E+01, -2.066496912065199E-01, -1.430312025230426E-03,  3.030324648965532E-03, -8.549970681167961E-05,
2450470.500000000, A.D. 1997-Jan-22 00:00:00.0000,      62.184525,  1.124975961591227E+01, -1.628234142309692E+01, -2.057221932212637E-01,  7.454846658393107E-03,  9.033847701730177E-04, -1.799912099512335E-03,
2450475.500000000, A.D. 1997-Jan-27 00:00:00.0000,      62.184661,  1.126515408884960E+01, -1.627206324359674E+01, -2.068235110820711E-01,  8.650700111177172E-06,  3.196714139809696E-03,  3.277623990407459E-03,
2450480.500000000, A.D. 1997-Feb-01 00:00:00.0000,      62.184792,  1.128210561089334E+01, -1.626188740083861E+01, -2.063709032947684E-01,  4.852741174773996E-03,  1.103830908752513E-03, -4.376281469829245E-03,
2450485.500000000, A.D. 1997-Feb-06 00:00:00.0000,      62.184919,  1.129702467698863E+01, -1.625138204925560E+01, -2.067555683078434E-01,  3.354075767272862E-03,  2.683525547215576E-03,  4.663827266084684E-03,
2450490.500000000, A.D. 1997-Feb-11 00:00:00.0000,      62.185039,  1.131409439857336E+01, -1.624132268398936E+01, -2.071490850072701E-01,  1.264539078910436E-03,  1.874320069032672E-03, -4.360155090996408E-03,
2450495.500000000, A.D. 1997-Feb-16 00:00:00.0000,      62.185150,  1.132918750874328E+01, -1.623071016677830E+01, -2.066880461415162E-01,  6.607621396507892E-03,  1.799591224319760E-03,  3.247547177438134E-03,
2450500.500000000, A.D. 1997-Feb-21 00:00:00.0000,      62.185251,  1.134573484376679E+01, -1.622061266139072E+01, -2.077938748035688E-01, -1.168827663765336E-03,  2.759551729723558E-03, -1.761150780228799E-03,
2450505.500000000, A.D. 1997-Feb-26 00:00:00.0000,      62.185341,  1.136153436847021E+01, -1.621005848529648E+01, -2.068628417889486E-01,  7.825863554357274E-03,  1.074738866665327E-03, -1.267314580377834E-04,
2450510.500000000, A.D. 1997-Mar-03 00:00:00.0000,      62.185422,  1.137721780980722E+01, -1.619977229387080E+01, -2.081215843871289E-01, -9.972769009804153E-04,  3.235341831224968E-03,  1.867910166105053E-03,
2450515.500000000, A.D. 1997-Mar-08 00:00:00.0000,      62.185494,  1.139382154043887E+01, -1.618938899125868E+01, -2.073770409119083E-01,  6.277984762370225E-03,  9.450737909892516E-04, -3.446278605055178E-03,
2450520.500000000, A.D. 1997-Mar-13 00:00:00.0000,      62.185555,  1.140880173205893E+01, -1.617885724198322E+01, -2.081374431663553E-01,  1.672839284077293E-03,  3.021467065264429E-03,  4.361142410244564E-03,
2450525.500000000, A.D. 1997-Mar-18 00:00:00.0000,      62.185603,  1.142581511263005E+01, -1.616863726881111E+01, -2.081240691682175E-01,  2.884374063736342E-03,  1.492651642271476E-03, -4.729327260032140E-03,
2450530.500000000, A.D. 1997-Mar-23 00:00:00.0000,      62.185638,  1.144065932104875E+01, -1.615793104545106E+01, -2.080326559241623E-01,  5.244608444086381E-03,  2.248520196816875E-03,  4.231946966976320E-03,
2450535.500000000, A.D. 1997-Mar-28 00:00:00.0000,      62.185660,  1.145742996110766E+01, -1.614775090852047E+01, -2.088581076336194E-01, -3.312474512530020E-04,  2.395593605450611E-03, -3.208827006395165E-03,
2450540.500000000, A.D. 1997-Apr-02 00:00:00.0000,      62.185671,  1.147277402590806E+01, -1.613702712202823E+01, -2.080695823241603E-01,  7.584830300040238E-03,  1.380124680957592E-03,  1.558121945191681E-03,
2450545.500000000, A.D. 1997-Apr-07 00:00:00.0000,      62.185670,  1.148878099870529E+01, -1.612672093083120E+01, -2.093407375491068E-01, -1.450704375375683E-03,  3.119226268321337E-03,  2.071836323070924E-04,
2450550.500000000, A.D. 1997-Apr-12 00:00:00.0000,      62.185658,  1.150494978480946E+01, -1.611612883317223E+01, -2.084251190473069E-01,  7.294798602658984E-03,  9.373356238830688E-04, -2.065984248829774E-03,
2450555.500000000, A.D. 1997-Apr-17 00:00:00.0000,      62.185632,  1.152011521537974E+01, -1.610558743033851E+01, -2.094833435365263E-01,  1.906499575503295E-04,  3.235333235031614E-03,  3.478262407321266E-03,
2450560.500000000, A.D. 1997-Apr-22 00:00:00.0000,      62.185593,  1.153692753310132E+01, -1.609517944585768E+01, -2.090862849484280E-01,  4.543373933388121E-03,  1.188854471968840E-03, -4.477753297334514E-03,
2450565.500000000, A.D. 1997-Apr-27 00:00:00.0000,      62.185542,  1.155166302146829E+01, -1.608441545788136E+01, -2.093993749469795E-01,  3.609127585482311E-03,  2.677819824731118E-03,  4.653113094477595E-03,
2450570.500000000, A.D. 1997-May-02 00:00:00.0000,      62.185481,  1.156854034513501E+01, -1.607411596439429E+01, -2.098571202957649E-01,  9.699038112958514E-04,  1.989658833039185E-03, -4.236314330653299E-03,
2450575.500000000, A.D. 1997-May-07 00:00:00.0000,      62.185411,  1.158350091517498E+01, -1.606325640671185E+01, -2.093368374485330E-01,  6.762517486329506E-03,  1.781886372280151E-03,  3.032104908848542E-03,
